      2.10          N: GNSS NAV DATA                        RINEX VERSION / TYPE
fic2rin                                 09/14/2022 00:17:31 PGM / RUN BY / DATE
                                                            END OF HEADER
3  22  9 13  2  0  0.0 -.350008718669D-03 -.625277607469D-11  .000000000000D+00
     .370000000000D+02  .349687500000D+02  .439232581514D-08  .210472428224D+01
     .175461173058D-05  .450800964609D-02  .501237809658D-05  .515354994965D+04
     .180000000000D+06 -.260770320892D-07  .165014998465D+01 -.109896063805D-06
     .974939295209D+00  .289093750000D+03  .105496214592D+01 -.814426781287D-08
     .371444043564D-09  .100000000000D+01  .222700000000D+04  .000000000000D+00
     .340000000000D+01  .000000000000D+00  .186264514923D-08  .370000000000D+02
     .172800000000D+06  .400000000000D+01
2  22  9 13  2  0  0.0 -.646225176752D-03  .125055521494D-11  .000000000000D+00
     .260000000000D+02 -.131250000000D+01  .382658796418D-08  .283787316927D+01
     .745058059692D-07  .199711044552D-01  .130534172058D-04  .515489730263D+04
     .180000000000D+06  .223517417908D-06  .523526214374D+00  .242143869400D-07
     .966677731608D+00  .124250000000D+03 -.139482779782D+01 -.736209237498D-08
     .300012496725D-10  .100000000000D+01  .222700000000D+04  .000000000000D+00
     .240000000000D+01  .000000000000D+00 -.172294676304D-07  .260000000000D+02
     .172800000000D+06  .400000000000D+01
1  22  9 13  2  0  0.0  .284921843559D-03 -.659383658785D-11  .000000000000D+00
     .129000000000D+03  .109375000000D+01  .350014579512D-08 -.307257780792D+01
     .109896063805D-06  .120056858286D-01  .119414180517D-04  .515366205788D+04
     .180000000000D+06  .596046447754D-07  .617064208893D+00 -.102445483208D-06
     .988681815983D+00  .160968750000D+03  .943948374873D+00 -.734387733054D-08
     .207865801302D-09  .100000000000D+01  .222700000000D+04  .000000000000D+00
     .240000000000D+01  .000000000000D+00  .512227416039D-08  .129000000000D+03
     .172800000000D+06  .400000000000D+01
10 22  9 13  2  0  0.0 -.303285196424D-05 -.159161572810D-11  .000000000000D+00
     .580000000000D+02  .343750000000D+02  .451411660250D-08  .122184044574D+01
     .183470547199D-05  .788438459858D-02  .509060919285D-05  .515367772102D+04
     .180000000000D+06 -.875443220139D-07  .164743941542D+01  .465661287308D-07
     .974723263171D+00  .288937500000D+03 -.251182864951D+01 -.827427322812D-08
     .285011871888D-09  .100000000000D+01  .222700000000D+04  .000000000000D+00
     .240000000000D+01  .000000000000D+00  .232830643654D-08  .580000000000D+02
     .172800000000D+06  .400000000000D+01
8  22  9 13  2  0  0.0 -.843880698085D-04 -.159161572810D-11  .000000000000D+00
     .680000000000D+02 -.791562500000D+02  .465662253845D-08 -.831383363528D+00
    -.416487455368D-05  .749947794247D-02  .626780092716D-05  .515358633995D+04
     .180000000000D+06  .210478901863D-06 -.467027046877D+00 -.875443220139D-07
     .962291004974D+00  .261437500000D+03  .164192235929D+00 -.829284543030D-08
    -.526807657939D-09  .100000000000D+01  .222700000000D+04  .000000000000D+00
     .240000000000D+01  .000000000000D+00  .512227416039D-08  .680000000000D+02
     .172800000000D+06  .400000000000D+01
7  22  9 13  2  0  0.0  .308000948280D-03 -.295585778076D-11  .000000000000D+00
     .350000000000D+02  .403125000000D+02  .450947355196D-08  .257970524982D+01
     .205077230930D-05  .163955664029D-01  .122673809528D-04  .515364536476D+04
     .180000000000D+06  .149011611938D-07 -.253471547328D+01 -.271946191788D-06
     .950928760171D+00  .138000000000D+03 -.224339877374D+01 -.772817905253D-08
     .211437378644D-09  .100000000000D+01  .222700000000D+04  .000000000000D+00
     .240000000000D+01  .000000000000D+00 -.111758708954D-07  .350000000000D+02
     .172800000000D+06  .400000000000D+01
5  22  9 13  2  0  0.0 -.964598730206D-04 -.136424205266D-11  .000000000000D+00
     .890000000000D+02  .415312500000D+02  .475698386176D-08 -.538622158198D+00
     .234134495258D-05  .611897266936D-02  .487826764584D-05  .515377674675D+04
     .180000000000D+06  .391155481339D-07  .160696324879D+01  .100582838058D-06
     .961962050289D+00  .286000000000D+03  .110883316500D+01 -.844463746733D-08
     .433589489314D-09  .100000000000D+01  .222700000000D+04  .000000000000D+00
     .240000000000D+01  .000000000000D+00 -.111758708954D-07  .890000000000D+02
     .172800000000D+06  .400000000000D+01
6  22  9 13  2  0  0.0  .458922237158D-03  .126192389871D-10  .000000000000D+00
     .970000000000D+02  .149062500000D+02  .362193658248D-08 -.282872471304D+01
     .694766640663D-06  .247712561395D-02  .121798366308D-04  .515379908752D+04
     .180000000000D+06  .633299350739D-07  .608794963508D+00 -.204890966415D-07
     .987991931613D+00  .162500000000D+03 -.917340360028D+00 -.751459872749D-08
     .118576367753D-09  .100000000000D+01  .222700000000D+04  .000000000000D+00
     .240000000000D+01  .000000000000D+00  .372529029846D-08  .970000000000D+02
     .172800000000D+06  .400000000000D+01
4  22  9 13  2  0  0.0 -.119551084936D-03  .557065504836D-11  .000000000000D+00
     .178000000000D+03 -.691875000000D+02  .458233372974D-08 -.116681052051D+01
    -.375509262085D-05  .200867606327D-02  .767409801483D-05  .515375342178D+04
     .180000000000D+06  .167638063431D-07  .273186549218D+01 -.726431608200D-07
     .962074307308D+00  .230000000000D+03 -.308670639570D+01 -.814176770873D-08
    -.355014787791D-09  .100000000000D+01  .222700000000D+04  .000000000000D+00
     .240000000000D+01  .000000000000D+00 -.465661287308D-08  .434000000000D+03
     .172800000000D+06  .400000000000D+01
9  22  9 13  2  0  0.0 -.296786427498D-03  .477484718431D-11  .000000000000D+00
     .710000000000D+02 -.679062500000D+02  .478948521557D-08 -.392881279368D+00
    -.378303229809D-05  .246985303238D-02  .741332769394D-05  .515375972557D+04
     .180000000000D+06 -.465661287308D-07  .267724387763D+01 -.186264514923D-07
     .955150822208D+00  .235312500000D+03  .190719602587D+01 -.828891669522D-08
    -.336799743347D-09  .100000000000D+01  .222700000000D+04  .000000000000D+00
     .240000000000D+01  .000000000000D+00  .139698386192D-08  .710000000000D+02
     .172800000000D+06  .400000000000D+01
21 22  9 13  2  0  0.0  .159509014338D-03 -.454747350886D-12  .000000000000D+00
     .110000000000D+02 -.102187500000D+02  .425374861428D-08 -.797957873943D+00
    -.547617673874D-06  .243221028941D-01  .120084732771D-04  .515370632362D+04
     .180000000000D+06 -.391155481339D-06  .520520081568D+00 -.111758708954D-06
     .960987827309D+00  .155968750000D+03 -.896309512626D+00 -.815319675623D-08
     .336085427879D-09  .100000000000D+01  .222700000000D+04  .000000000000D+00
     .240000000000D+01  .000000000000D+00 -.102445483208D-07  .110000000000D+02
     .172800000000D+06  .400000000000D+01
19 22  9 13  2  0  0.0  .209951307625D-03  .511590769747D-11  .000000000000D+00
     .150000000000D+02 -.832812500000D+02  .423839083170D-08  .135363079878D+01
    -.461377203465D-05  .913982896600D-02  .722520053387D-05  .515372126198D+04
     .180000000000D+06  .163912773132D-06 -.337288532987D+00 -.875443220139D-07
     .976633600115D+00  .246468750000D+03  .217456142831D+01 -.798640409436D-08
    -.593596154234D-09  .100000000000D+01  .222700000000D+04  .000000000000D+00
     .240000000000D+01  .000000000000D+00 -.153668224812D-07  .150000000000D+02
     .172800000000D+06  .400000000000D+01
29 22  9 13  2  0  0.0 -.551074277610D-03 -.318323145621D-11  .000000000000D+00
     .430000000000D+02 -.881250000000D+02  .419946063868D-08 -.911013489494D+00
    -.463426113129D-05  .222520681564D-02  .784546136856D-05  .515364887810D+04
     .180000000000D+06  .931322574615D-08 -.368503541652D+00  .204890966415D-07
     .979831919395D+00  .237125000000D+03  .245188013184D+01 -.805390690612D-08
    -.552880172536D-09  .100000000000D+01  .222700000000D+04  .000000000000D+00
     .240000000000D+01  .000000000000D+00 -.102445483208D-07  .430000000000D+02
     .172800000000D+06  .400000000000D+01
31 22  9 13  2  0  0.0 -.193146988750D-03 -.136424205266D-11  .000000000000D+00
     .400000000000D+02  .464687500000D+02  .449411576939D-08  .204886885575D+01
     .254996120930D-05  .105079733767D-01  .132098793983D-04  .515359177589D+04
     .180000000000D+06 -.262632966042D-06 -.251577645683D+01  .931322574615D-07
     .955080463163D+00  .122500000000D+03  .424162261249D+00 -.799426156451D-08
     .164292557730D-09  .100000000000D+01  .222700000000D+04  .000000000000D+00
     .240000000000D+01  .000000000000D+00 -.135041773319D-07  .400000000000D+02
     .172800000000D+06  .400000000000D+01
30 22  9 13  2  0  0.0 -.536917243153D-03 -.227373675443D-12  .000000000000D+00
     .230000000000D+02  .470937500000D+02  .493127683605D-08  .247881973901D+01
     .253506004810D-05  .595510494895D-02  .115875154734D-04  .515372236252D+04
     .180000000000D+06 -.121071934700D-06 -.252473808525D+01 -.819563865662D-07
     .936059363841D+00  .145218750000D+03 -.265513544624D+01 -.813569602725D-08
     .229652423088D-09  .100000000000D+01  .222700000000D+04  .000000000000D+00
     .240000000000D+01  .000000000000D+00  .372529029846D-08  .230000000000D+02
     .172800000000D+06  .400000000000D+01
25 22  9 13  2  0  0.0  .371405389160D-03  .409272615798D-11  .000000000000D+00
     .390000000000D+02  .683437500000D+02  .518235872319D-08  .169006260013D+01
     .338070094585D-05  .105199972168D-01  .385381281376D-05  .515361569214D+04
     .180000000000D+06 -.266358256340D-06 -.149990726509D+01 -.132247805595D-06
     .955154305416D+00  .302375000000D+03  .100460775516D+01 -.863178812005D-08
     .287869133762D-09  .100000000000D+01  .222700000000D+04  .000000000000D+00
     .240000000000D+01  .000000000000D+00  .558793544769D-08  .390000000000D+02
     .172800000000D+06  .400000000000D+01
